"Remus:87 Sylvia II:Sylvia II:S 2004 (87) 1" "Sol/Sylvia"
{
	Class	"minormoon"
	Mesh	"asteroid.cms"
	Texture	"asteroid.*"
	Color	[ 0.303 0.300 0.292 ]
	BlendTexture	true
	Radius	5.15
	Mass	1.306095e-10
	# Density	1480
	OrbitFrame	{ EquatorJ2000 { } }
	EllipticalOrbit
	{
		Epoch	2455594.89253  # 2011 Feb 02 09:25:15
		Period	1.35699
		SemiMajorAxis	694.2
		Eccentricity	0.005
		Inclination	8.7
		AscendingNode	100.8
		ArgOfPericenter	262.2
	}
	LunarLambert	0.5
	GeomAlbedo	0.04
	InfoURL	"https://en.wikipedia.org/wiki/Remus_(moon)"
}

# Size and shape from Berthier et al. (2014), Icarus 239, 118-130
# "Physical and dynamical properties of the main belt triple Asteroid (87) Sylvia"
# https://arxiv.org/abs/1407.1292
"Romulus:87 Sylvia I:Sylvia I:S 2001 (87) 1" "Sol/Sylvia"
{
	Class	"minormoon"
	Mesh	"roughsphere.cms"
	Texture	"asteroid.*"
	Color	[ 0.303 0.300 0.292 ]
	BlendTexture	true
	# Radius	7.55
	SemiAxes	[ 19 7 7 ]
	Mass	2.344273e-10
	# Density	790
	OrbitFrame	{ EquatorJ2000 { } }
	EllipticalOrbit
	{
		Epoch	2455597.08689  # 2011 Feb 04 14:05:07
		Period	3.64126
		SemiMajorAxis	1340.6
		Eccentricity	0.000
		Inclination	7.4
		AscendingNode	97.1
		ArgOfPericenter	171.0
	}
	BodyFrame	{ EquatorJ2000 {} }
	UniformRotation  # to match orbit
	{
		Inclination	7.4
		AscendingNode	97.1
		MeridianAngle	53.8
	}
	LunarLambert	0.5
	GeomAlbedo	0.04
	InfoURL	"https://en.wikipedia.org/wiki/Romulus_(moon)"
}

# Fuksa et al. (2023), A&A 677, A189
# "An advanced multipole model of the (130) Elektra quadruple system"
# https://www.aanda.org/articles/aa/full_html/2023/09/aa46386-23/aa46386-23.html
"130 Elektra:Elektra" "Sol"
{
	Class	"asteroid"
	Mesh	"elektra.cmod"
	MeshCenter	[ -0.1315 -0.0109 2.624 ]
	Texture	"asteroid.*"
	Color	[ 0.394 0.390 0.373 ]
	BlendTexture	true
	Radius	135  # maximum semi-axis; mean of two models
	Mass	1.106162e-6
	Density	1536
	EllipticalOrbit
	{
		Epoch	2460200.5  # 2023 Sept 13
		Period	5.527107049307030
		SemiMajorAxis	3.126029815266054
		Eccentricity	0.209667410193861
		Inclination	22.77754756941516
		AscendingNode	144.9889230573203
		ArgOfPericenter	237.7477091724604
		MeanAnomaly	230.8768973136703
	}
	BodyFrame	{ EquatorJ2000 {} }
	UniformRotation  # pole orientation from orbital model
	{
		Period	5.224663
		Inclination	156.8
		AscendingNode	184.5
		MeridianAngle	177.2  # from DAMIT model 1856
	}
	LunarLambert	0.5
	GeomAlbedo	0.067  # Vernazza et al. (2021)
	InfoURL	"https://en.wikipedia.org/wiki/130_Elektra"
}

"S 2014 (130) 1" "Sol/Elektra"
{
	Class	"minormoon"
	Mesh	"asteroid.cms"
	Texture	"asteroid.*"
	Color	[ 0.394 0.390 0.373 ]
	BlendTexture	true
	Radius	1.0
	Mass	1.138647e-12
	OrbitFrame	{ EclipticJ2000 { } }
	EllipticalOrbit
	{
		Epoch	2457021.567880  # 2014 Dec 30 01:37:45
		Period	1.2127
		SemiMajorAxis	496.8
		Eccentricity	0.028
		Inclination	179.7
		AscendingNode	185.3
		LongOfPericenter	54.3
		MeanLongitude	74.1
	}
	LunarLambert	0.5
	GeomAlbedo	0.067
	InfoURL	"https://en.wikipedia.org/wiki/130_Elektra#S/2014_(130)_1"
}

"S 2014 (130) 2" "Sol/Elektra"
{
	Class	"minormoon"
	Mesh	"asteroid.cms"
	Texture	"asteroid.*"
	Color	[ 0.394 0.390 0.373 ]
	BlendTexture	true
	Radius	0.8
	Mass	5.693235e-13
	OrbitFrame	{ EclipticJ2000 { } }
	EllipticalOrbit
	{
		Epoch	2457021.567880  # 2014 Dec 30 01:37:45
		Period	1.6421
		SemiMajorAxis	608
		Eccentricity	0.064
		Inclination	183.7
		AscendingNode	107.1
		LongOfPericenter	197.9
		MeanLongitude	345.4
	}
	LunarLambert	0.5
	GeomAlbedo	0.067
	InfoURL	"https://en.wikipedia.org/wiki/130_Elektra#Third_satellite"
}

"S 2003 (130) 1" "Sol/Elektra"
{
	Class	"minormoon"
	Mesh	"asteroid.cms"
	Texture	"asteroid.*"
	Color	[ 0.394 0.390 0.373 ]
	BlendTexture	true
	Radius	3.0
	Mass	3.014066e-11
	OrbitFrame	{ EclipticJ2000 { } }
	EllipticalOrbit
	{
		Epoch	2457021.567880  # 2014 Dec 30 01:37:45
		Period	5.30032
		SemiMajorAxis	1328
		Eccentricity	0.123
		Inclination	175.3
		AscendingNode	43.5
		LongOfPericenter	86.8
		MeanLongitude	33.8
	}
	LunarLambert	0.5
	GeomAlbedo	0.067
	InfoURL	"https://en.wikipedia.org/wiki/130_Elektra#S/2003_(130)_1"
}

# Marchis et al. (2021), A&A 653, A57
# "(216) Kleopatra, a low density critically rotating M-type asteroid"
# https://www.aanda.org/articles/aa/full_html/2021/09/aa40874-21/aa40874-21.html
# Moon parameters from Brož et al. (2021), A&A 653, A56
# "An advanced multipole model for (216) Kleopatra triple system"
# https://www.aanda.org/articles/aa/full_html/2021/09/aa40901-21/aa40901-21.html
"216 Kleopatra:Kleopatra:A905 OA:A910 RA" "Sol"
{
	Class	"asteroid"
	Mesh	"kleopatra.cmod"
	MeshCenter	[ 7.24 0.4550 -1.669 ]
	Texture	"asteroid.*"
	Color	[ 0.587 0.578 0.570 ]
	BlendTexture	true
	Radius	133.5  # maximum semi-axis; MPCD model
	Mass	4.973208e-7
	Density	3380
	EllipticalOrbit
	{
		Epoch	2460200.5  # 2023 Sept 13
		Period	4.668221155087945
		SemiMajorAxis	2.793157852317082
		Eccentricity	0.2509986364100729
		Inclination	13.12108303620164
		AscendingNode	215.3137706682851
		ArgOfPericenter	179.6897916073022
		MeanAnomaly	48.92084097660603
	}
	BodyFrame	{ EquatorJ2000 {} }
	UniformRotation  # MPCD model
	{
		Period	5.385282
		Inclination	46.1
		AscendingNode	159.3
		MeridianAngle	42.2  # from DAMIT model 1826
	}
	LunarLambert	0.5
	GeomAlbedo	0.152  # Vernazza et al. (2021)
	InfoURL	"https://en.wikipedia.org/wiki/216_Kleopatra"
}

"Cleoselene:216 Kleopatra II:Kleopatra II:S 2008 (216) 2" "Sol/Kleopatra"
{
	Class	"minormoon"
	Mesh	"asteroid.cms"
	Texture	"asteroid.*"
	Color	[ 0.587 0.578 0.570 ]
	BlendTexture	true
	Radius	3.45
	Mass	6.697924e-11
	# Density	2300
	OrbitFrame	{ EclipticJ2000 { } }
	EllipticalOrbit
	{
		Epoch	2454728.761806  # 2008 Sept 19 06:17
		Period	1.822359
		SemiMajorAxis	499
		Eccentricity	0.000102
		Inclination	70.104
		AscendingNode	162.920
		LongOfPericenter	90.089
		MeanLongitude	149.665
	}
	LunarLambert	0.5
	GeomAlbedo	0.152
	InfoURL	"https://en.wikipedia.org/wiki/216_Kleopatra#Moons"
}

"Alexhelios:216 Kleopatra I:Kleopatra I:S 2008 (216) 1" "Sol/Kleopatra"
{
	Class	"minormoon"
	Mesh	"asteroid.cms"
	Texture	"asteroid.*"
	Color	[ 0.587 0.578 0.570 ]
	BlendTexture	true
	Radius	4.45
	Mass	1.004689e-10
	# Density	1600
	OrbitFrame	{ EclipticJ2000 { } }
	EllipticalOrbit
	{
		Epoch	2454728.761806  # 2008 Sept 19 06:17
		Period	2.745820
		SemiMajorAxis	655
		Eccentricity	0.0001
		Inclination	70.347
		AscendingNode	162.954
		LongOfPericenter	91.601
		MeanLongitude	198.357
	}
	LunarLambert	0.5
	GeomAlbedo	0.152
	InfoURL	"https://en.wikipedia.org/wiki/216_Kleopatra#Moons"
}

"704 Interamnia:Interamnia:1910 KU:1952 MW" "Sol"
{
	Class	"asteroid"
	Mesh	"interamnia.cmod"
	MeshCenter	[ -2.784 -2.225 -6.122 ]
	Texture	"asteroid.*"
	Color	[ 0.388 0.391 0.395 ]
	BlendTexture	true
	Radius	177  # maximum semi-axis
	Mass	5.894173e-6
	Density	1840
	EllipticalOrbit
	{
		Epoch	2460200.5  # 2023 Sept 13
		Period	5.348580216638409
		SemiMajorAxis	3.058347812128694
		Eccentricity	0.1559418886160162
		Inclination	17.30804365401011
		AscendingNode	280.1747411007504
		ArgOfPericenter	94.41013154878203
		MeanAnomaly	36.27237669780099
	}
	BodyFrame	{ EquatorJ2000 {} }
	UniformRotation  # from DAMIT model 4393
	{
		Period	8.712337
		Inclination	4
		AscendingNode	163
		MeridianAngle	36.4
	}
	LunarLambert	0.5
	GeomAlbedo	0.067
	InfoURL	"https://en.wikipedia.org/wiki/704_Interamnia"
}



# Other asteroids
"1252 Celestia:Celestia:1933 DG:1934 PA1" "Sol"
{
	Class	"asteroid"
	Mesh	"asteroid.cms"
	Texture	"asteroid.*"
	Color	[ 0.511 0.486 0.445 ]
	BlendTexture	true
	Radius	9.519  # Masiero et al. (2014), 2014ApJ...791..121M
	EllipticalOrbit
	{
		Epoch	2460200.5  # 2023 Sept 13
		Period	4.4252044481
		SemiMajorAxis	2.6953598737
		Eccentricity	0.2063036018
		Inclination	33.82979409
		AscendingNode	140.88974895
		ArgOfPericenter	63.54846435
		MeanAnomaly	133.6317661
	}
	UniformRotation
	{
		Period	10.636  # Worman (1995), 1995MPBu...22...39W
	}
	LunarLambert	1
	GeomAlbedo	0.215  # Mainzer et al. (2016), 2016PDSS..247.....M
	InfoURL	"https://en.wikipedia.org/wiki/1252_Celestia"
}



# Some of the asteroids visited by spacecraft
"951 Gaspra:Gaspra:A913 YA" "Sol"
{
	Class "asteroid"
	Mesh "gaspra.cmod"
	Texture "gaspramosaic.*" # Phil Stooke
	Color [ 1.000 0.883 0.769 ]
	BlendTexture true
	Radius    9.1 # maximum semi-axis
	MeshCenter [ 1.540 -0.064 -0.118 ]

	EllipticalOrbit
	{
	Epoch     2448559.0        # 1991 Oct 29 12:00UT (Galileo encounter)
	Period          3.2837     # average
	SemiMajorAxis   2.2096348  # at epoch
	Eccentricity    0.1738752  # at epoch
	Inclination     4.0975771  # at epoch
	AscendingNode   253.445592 # at epoch
	ArgOfPericenter 129.045896 # at epoch
	MeanAnomaly     280.769206 # at epoch
	}

	UniformRotation
	{
	Period         7.042073
	Inclination             69.28
	AscendingNode 109.59
	MeridianAngle        58.865
	}

	Albedo 0.1
}

